SKYKRAFT-1A             
1 55054U 23001AX  26068.71064616  .00008177  00000+0  30069-3 0  9991
2 55054  97.3349 127.6290 0011277 121.5092 238.7251 15.28083228176529
STARLINK-31753          
1 59484U 24071A   26068.15951413 -.00001523  00000+0 -45806-4 0  9994
2 59484  43.0044 342.8115 0002222 258.3159 101.7443 15.27589882108129
